[{"OBJECT_NAME":"STARLINK-1727","OBJECT_ID":"2020-062L","EPOCH":"2026-03-10T00:00:02.999808","MEAN_MOTION":15.68774266,"ECCENTRICITY":0.0003989,"INCLINATION":53.0455,"RA_OF_ASC_NODE":334.6751,"ARG_OF_PERICENTER":315.6652,"MEAN_ANOMALY":309.6896,"EPHEMERIS_TYPE":0,"CLASSIFICATION_TYPE":"U","NORAD_CAT_ID":46335,"ELEMENT_SET_NO":999,"REV_AT_EPOCH":585,"BSTAR":0.0010099157,"MEAN_MOTION_DOT":0.00118879,"MEAN_MOTION_DDOT":0},{"OBJECT_NAME":"STARLINK-11460 [DTC]","OBJECT_ID":"2024-217N","EPOCH":"2026-03-09T09:33:30.180672","MEAN_MOTION":15.69772082,"ECCENTRICITY":0.00017592,"INCLINATION":53.1577,"RA_OF_ASC_NODE":72.9929,"ARG_OF_PERICENTER":67.9448,"MEAN_ANOMALY":292.1757,"EPHEMERIS_TYPE":0,"CLASSIFICATION_TYPE":"U","NORAD_CAT_ID":62069,"ELEMENT_SET_NO":999,"REV_AT_EPOCH":7506,"BSTAR":0.0016413647,"MEAN_MOTION_DOT":0.00203744,"MEAN_MOTION_DDOT":0}]
